XRISM                   
1 57800U 23137A   24011.20217608  .00005772  00000+0  45618-3 0  9997
2 57800  31.0045 296.6432 0009605  83.1884 276.9844 14.99191815 18860
